{
    "links": {
        "self": "http://www.neowsapp.com/rest/v1/neo/3780673?api_key=iIulBulltgU6a56xZRHN4H3l9WmuAYTsLGpBGhQ2"
    },
    "id": "3780673",
    "neo_reference_id": "3780673",
    "name": "(2017 QB)",
    "designation": "2017 QB",
    "nasa_jpl_url": "http://ssd.jpl.nasa.gov/sbdb.cgi?sstr=3780673",
    "absolute_magnitude_h": 23.2,
    "estimated_diameter": {
        "kilometers": {
            "estimated_diameter_min": 0.0608912622,
            "estimated_diameter_max": 0.1361570015
        },
        "meters": {
            "estimated_diameter_min": 60.8912622106,
            "estimated_diameter_max": 136.1570015386
        },
        "miles": {
            "estimated_diameter_min": 0.0378360645,
            "estimated_diameter_max": 0.0846040122
        },
        "feet": {
            "estimated_diameter_min": 199.7744887109,
            "estimated_diameter_max": 446.7093369279
        }
    },
    "is_potentially_hazardous_asteroid": false,
    "close_approach_data": [
        {
            "close_approach_date": "2017-08-22",
            "close_approach_date_full": "2017-Aug-22 16:27",
            "epoch_date_close_approach": 1503419220000,
            "relative_velocity": {
                "kilometers_per_second": "9.9463444421",
                "kilometers_per_hour": "35806.8399914978",
                "miles_per_hour": "22248.9778824949"
            },
            "miss_distance": {
                "astronomical": "0.0659309836",
                "lunar": "25.6471526204",
                "kilometers": "9863134.713564932",
                "miles": "6128667.7209107816"
            },
            "orbiting_body": "Earth"
        },
        {
            "close_approach_date": "2115-08-27",
            "close_approach_date_full": "2115-Aug-27 22:15",
            "epoch_date_close_approach": 4596387300000,
            "relative_velocity": {
                "kilometers_per_second": "9.4990025529",
                "kilometers_per_hour": "34196.4091905116",
                "miles_per_hour": "21248.3188106265"
            },
            "miss_distance": {
                "astronomical": "0.074881359",
                "lunar": "29.128848651",
                "kilometers": "11202091.80910533",
                "miles": "6960657.080220354"
            },
            "orbiting_body": "Earth"
        }
    ],
    "orbital_data": {
        "orbit_id": "10",
        "orbit_determination_date": "2017-11-17 06:20:00",
        "first_observation_date": "2017-08-16",
        "last_observation_date": "2017-08-28",
        "data_arc_in_days": 12,
        "observations_used": 71,
        "orbit_uncertainty": "8",
        "minimum_orbit_intersection": ".0658558",
        "jupiter_tisserand_invariant": "3.765",
        "epoch_osculation": "2457984.5",
        "eccentricity": ".4542785566290941",
        "semi_major_axis": "1.915222325647361",
        "inclination": "14.08073729080692",
        "ascending_node_longitude": "323.5814729442842",
        "orbital_period": "968.115604514452",
        "perihelion_distance": "1.045177891928461",
        "perihelion_argument": "28.9789052245571",
        "aphelion_distance": "2.785266759366261",
        "perihelion_time": "2458008.883624033091",
        "mean_anomaly": "350.9327929319812",
        "mean_motion": ".3718564170655571",
        "equinox": "J2000",
        "orbit_class": {
            "orbit_class_type": "AMO",
            "orbit_class_description": "Near-Earth asteroid orbits similar to that of 1221 Amor",
            "orbit_class_range": "1.017 AU < q (perihelion) < 1.3 AU"
        }
    },
    "is_sentry_object": false
}